ASTROCAST 0.1           
1 43798U 18099AS  26197.81825402  .00024397  00000+0  41314-3 0  9993
2 43798  97.4370 277.2819 0005508 124.6077 235.5696 15.51531546419022
ASTROCAST-0402          
1 55109U 23001DE  26197.69307316  .00007177  00000+0  25721-3 0  9997
2 55109  97.5586 291.3425 0006497 130.5933 229.5873 15.29031724149046
ASTROCAST-0401          
1 55110U 23001DF  26197.51265858  .00010313  00000+0  37314-3 0  9991
2 55110  97.5571 290.9634 0009534 104.7978 255.4319 15.28577412195688
ASTROCAST-0403          
1 55111U 23001DG  26197.52604110  .00014172  00000+0  45517-3 0  9992
2 55111  97.5626 292.3063 0004847 207.0294 153.0696 15.32396094149053
ASTROCAST-0404          
1 55112U 23001DH  26197.72689488  .00004447  00000+0  16147-3 0  9997
2 55112  97.5672 292.3113 0005201 236.6620 123.4122 15.28838133149041
