{"fetched_at":"2026-07-17T06:38:03.678Z","source":"https://celestrak.org/NORAD/elements/gp.php?NAME=ASTROCAST&FORMAT=JSON","constellation":"astrocast","records":[{"OBJECT_NAME":"ASTROCAST 0.1","OBJECT_ID":"2018-099AS","EPOCH":"2026-07-16T19:38:17.147328","CLASSIFICATION_TYPE":"U","MEAN_MOTION":15.51531546,"ECCENTRICITY":0.0005508,"INCLINATION":97.437,"RA_OF_ASC_NODE":277.2819,"ARG_OF_PERICENTER":124.6077,"MEAN_ANOMALY":235.5696,"EPHEMERIS_TYPE":0,"NORAD_CAT_ID":43798,"ELEMENT_SET_NO":999,"REV_AT_EPOCH":41902,"BSTAR":0.00041314,"MEAN_MOTION_DOT":0.00024397,"MEAN_MOTION_DDOT":0},{"OBJECT_NAME":"ASTROCAST-0402","OBJECT_ID":"2023-001DE","EPOCH":"2026-07-16T16:38:01.521024","CLASSIFICATION_TYPE":"U","MEAN_MOTION":15.29031724,"ECCENTRICITY":0.0006497,"INCLINATION":97.5586,"RA_OF_ASC_NODE":291.3425,"ARG_OF_PERICENTER":130.5933,"MEAN_ANOMALY":229.5873,"EPHEMERIS_TYPE":0,"NORAD_CAT_ID":55109,"ELEMENT_SET_NO":999,"REV_AT_EPOCH":14904,"BSTAR":0.00025721,"MEAN_MOTION_DOT":0.00007177,"MEAN_MOTION_DDOT":0},{"OBJECT_NAME":"ASTROCAST-0401","OBJECT_ID":"2023-001DF","EPOCH":"2026-07-16T12:18:13.701312","CLASSIFICATION_TYPE":"U","MEAN_MOTION":15.28577412,"ECCENTRICITY":0.0009534,"INCLINATION":97.5571,"RA_OF_ASC_NODE":290.9634,"ARG_OF_PERICENTER":104.7978,"MEAN_ANOMALY":255.4319,"EPHEMERIS_TYPE":0,"NORAD_CAT_ID":55110,"ELEMENT_SET_NO":999,"REV_AT_EPOCH":19568,"BSTAR":0.00037314,"MEAN_MOTION_DOT":0.00010313,"MEAN_MOTION_DDOT":0},{"OBJECT_NAME":"ASTROCAST-0403","OBJECT_ID":"2023-001DG","EPOCH":"2026-07-16T12:37:29.951040","CLASSIFICATION_TYPE":"U","MEAN_MOTION":15.32396094,"ECCENTRICITY":0.0004847,"INCLINATION":97.5626,"RA_OF_ASC_NODE":292.3063,"ARG_OF_PERICENTER":207.0294,"MEAN_ANOMALY":153.0696,"EPHEMERIS_TYPE":0,"NORAD_CAT_ID":55111,"ELEMENT_SET_NO":999,"REV_AT_EPOCH":14905,"BSTAR":0.00045517,"MEAN_MOTION_DOT":0.00014172,"MEAN_MOTION_DDOT":0},{"OBJECT_NAME":"ASTROCAST-0404","OBJECT_ID":"2023-001DH","EPOCH":"2026-07-16T17:26:43.717632","CLASSIFICATION_TYPE":"U","MEAN_MOTION":15.28838133,"ECCENTRICITY":0.0005201,"INCLINATION":97.5672,"RA_OF_ASC_NODE":292.3113,"ARG_OF_PERICENTER":236.662,"MEAN_ANOMALY":123.4122,"EPHEMERIS_TYPE":0,"NORAD_CAT_ID":55112,"ELEMENT_SET_NO":999,"REV_AT_EPOCH":14904,"BSTAR":0.00016147,"MEAN_MOTION_DOT":0.00004447,"MEAN_MOTION_DDOT":0}]}
